PERSEUS-M1              
1 40039U 14033AF  26166.43049224  .00001103  00000+0  10467-3 0  9991
2 40039  97.9642 110.5335 0010431 308.1412  51.8868 14.95626197650378
POLYITAN-1              
1 40042U 14033AJ  26166.55122806  .00015920  00000+0  49793-3 0  9992
2 40042  98.0935 192.6573 0008532 146.2556 213.9228 15.33207736653341
TIGRISAT                
1 40043U 14033AK  26166.36413471  .00001914  00000+0  22485-3 0  9990
2 40043  97.7826 316.4173 0050643  81.0598 279.6345 14.85156509645359
AEROCUBE 6A             
1 40045U 14033AM  26166.42054341  .00004928  00000+0  41492-3 0  9993
2 40045  97.7236 333.3875 0039064  24.0890 336.2149 14.98093876646353
AEROCUBE 6B             
1 40046U 14033AN  26166.42459282  .00004308  00000+0  35005-3 0  9992
2 40046  97.7236 333.1780 0038454  15.4316 344.8070 14.99555300646495
CANX-4                  
1 40055U 14034C   26166.59823265  .00000798  00000+0  10965-3 0  9994
2 40055  98.3124  41.8530 0013277  21.9807 338.1971 14.81262169644298
CANX-5                  
1 40056U 14034D   26166.59668435  .00000803  00000+0  11016-3 0  9996
2 40056  98.3126  41.8948 0013284  22.1634 338.0149 14.81279371635102
UKUBE-1                 
1 40074U 14037F   26166.58158936  .00006688  00000+0  37753-3 0  9991
2 40074  98.4228 169.6848 0002582 134.1478 225.9963 15.13532426648317
BRITE-PL2 (HEWELIUSZ)   
1 40119U 14049B   26166.56557141  .00001402  00000+0  13481-3 0  9994
2 40119  97.9096 278.5530 0015233 113.2986 246.9839 14.94588461641205
AEROCUBE 5C             
1 40965U 15058B   26166.56155017  .00002043  00000+0  18827-3 0  9991
2 40965  64.7679 267.6472 0130680  63.9056 297.5436 14.91447633365413
AEROCUBE 7              
1 40966U 15058C   26166.56252549  .00002808  00000+0  23154-3 0  9998
2 40966  64.7627 249.9052 0120418  62.3296 298.9978 14.95717126365711
FOX-1A (AO-85)          
1 40967U 15058D   26166.60861654  .00002082  00000+0  19417-3 0  9998
2 40967  64.7762 283.8894 0130356  57.2038 304.1552 14.90963368113335
SINOD-D 1               
1 40968U 15058E   26166.60752681  .00002768  00000+0  22816-3 0  9996
2 40968  64.7760 263.8595 0118956  53.7061 307.4970 14.95897746116423
SNAP-3 ALICE            
1 40970U 15058G   26166.57096968  .00103207  00000+0  12440-2 0  9995
2 40970  64.7500 109.5165 0028622  13.8355 346.3568 15.59736104116639
LMRST-SAT               
1 40971U 15058H   26166.56351743  .00001918  00000+0  18116-3 0  9993
2 40971  64.7767 280.3641 0131989  59.2584 302.1449 14.90583876113311
SNAP-3 EDDIE            
1 40972U 15058J   26166.43421721  .00104076  00000+0  11968-2 0  9990
2 40972  64.7429 100.7268 0028139  17.9086 342.3045 15.60973752118752
PROPCUBE 3              
1 40973U 15058K   26166.53616005  .00002455  00000+0  21059-3 0  9994
2 40973  64.7688 257.6942 0123954  60.5643 300.7773 14.94250037114555
BISONSAT                
1 40974U 15058L   26166.38418893  .00008868  00000+0  43228-3 0  9999
2 40974  64.7577 179.4739 0078880  48.0183 312.7625 15.16153901115349
SNAP-3 JIMI             
1 40975U 15058M   26166.52497092  .00003739  00000+0  26264-3 0  9997
2 40975  64.7640 225.0320 0106067  56.0418 305.0725 15.02286136113979
PROPCUBE 1 (FLORA)      
1 40976U 15058N   26166.58411006  .00002053  00000+0  20032-3 0  9990
2 40976  64.7756 300.2041 0130668  61.5482 299.8721 14.89216099116020
SINOD-D 3               
1 40977U 15058P   26166.56757912  .00002772  00000+0  24003-3 0  9998
2 40977  64.7737 280.8763 0119179  58.7706 302.5021 14.94007700114515
HORYU-4                 
1 41340U 16012D   26166.43547623  .00392649  54783-4  97992-3 0  9990
2 41340  30.9849  91.8834 0005149 261.3375  98.6703 15.94546005570538
RAVAN                   
1 41849U 16067B   26166.24139347  .00043365  00000+0  65707-3 0  9998
2 41849  97.9893  55.5895 0004713  37.6149 322.5432 15.54518227527392
CELTEE 1                
1 41850U 16067C   26166.56098195  .00004664  00000+0  22225-3 0  9997
2 41850  98.0673  33.0173 0000850 123.6796 236.4518 15.19669705525636
OPTICUBE 04             
1 41851U 16067D   26166.55470918  .00001850  00000+0  11905-3 0  9991
2 41851  98.0695  18.7533 0016823 120.6737 239.6151 15.09652461524929
AEROCUBE 8D             
1 41852U 16067E   26166.58018578  .00006583  00000+0  27200-3 0  9998
2 41852  98.0682  36.6295 0004608 127.2038 232.9619 15.24379223525829
AEROCUBE 8C             
1 41853U 16067F   26166.60543590  .00006155  00000+0  25257-3 0  9994
2 41853  98.0553  33.8864 0006666  73.3759 286.8208 15.24627685525825
CORVUS BC2              
1 42846U 17042X   26166.40124385  .00003591  00000+0  24801-3 0  9991
2 42846  97.4057 327.8202 0014225 116.1599 244.1094 15.06284861486797
CORVUS BC1              
1 42847U 17042Y   26166.52890186  .00003484  00000+0  23973-3 0  9994
2 42847  97.4092 328.7559 0013247  94.3500 265.9242 15.06456918486840
MAKERSAT 0              
1 43016U 17073D   26166.61242157  .00015748  00000+0  42925-3 0  9990
2 43016  97.4629  49.1195 0105159 278.6855  80.2486 15.32055995466226
